[{"OBJECT_NAME":"ONEWEB-0504","OBJECT_ID":"2022-138K","EPOCH":"2026-03-09T17:34:43.675680","MEAN_MOTION":13.19725454,"ECCENTRICITY":0.00015499,"INCLINATION":87.923,"RA_OF_ASC_NODE":324.7789,"ARG_OF_PERICENTER":87.5252,"MEAN_ANOMALY":272.6058,"EPHEMERIS_TYPE":0,"CLASSIFICATION_TYPE":"U","NORAD_CAT_ID":54122,"ELEMENT_SET_NO":999,"REV_AT_EPOCH":16371,"BSTAR":-0.00016984146,"MEAN_MOTION_DOT":-5.5e-7,"MEAN_MOTION_DDOT":0},{"OBJECT_NAME":"SL-24 R\/B","OBJECT_ID":"2005-031C","EPOCH":"2026-03-09T21:58:22.545408","MEAN_MOTION":14.00823625,"ECCENTRICITY":0.04088783,"INCLINATION":97.7517,"RA_OF_ASC_NODE":97.814,"ARG_OF_PERICENTER":287.6404,"MEAN_ANOMALY":68.0517,"EPHEMERIS_TYPE":0,"CLASSIFICATION_TYPE":"U","NORAD_CAT_ID":28811,"ELEMENT_SET_NO":999,"REV_AT_EPOCH":4969,"BSTAR":6.1876883e-5,"MEAN_MOTION_DOT":1.45e-6,"MEAN_MOTION_DDOT":0}]
